{"type": "FeatureCollection", "features": [ {"type": "Feature", "properties": {"norad_id": 36011, "name": "IRIDIUM 33 DEB", "group": "iridium-33-debris", "lat": 17.991054325326736, "lon": 37.370841326319955, "alt_km": 765.9223289917463, "timestamp": "2025-12-10T23:33:13.203613+00:00", "meta": {"OBJECT_NAME": "IRIDIUM 33 DEB", "OBJECT_ID": "1997-051US", "EPOCH": "2025-12-10T10:24:05.252832", "MEAN_MOTION": 14.41318738, "ECCENTRICITY": 0.00174211, "INCLINATION": 86.3414, "RA_OF_ASC_NODE": 36.4155, "ARG_OF_PERICENTER": 224.1593, "MEAN_ANOMALY": 192.2248, "EPHEMERIS_TYPE": 0, "CLASSIFICATION_TYPE": "U", "NORAD_CAT_ID": 36011, "ELEMENT_SET_NO": 999, "REV_AT_EPOCH": 64507, "BSTAR": 0.00072135893, "MEAN_MOTION_DOT": 2.356e-05, "MEAN_MOTION_DDOT": 0}, "tle": {"line1": "1 36011U 97051US  25344.43339413  .00002356  00000+0  72136-3 0  9998", "line2": "2 36011  86.3414  36.4155 0017421 224.1593 192.2248 14.41318738645074"}}, "geometry": {"type": "Point", "coordinates": [37.370841326319955, 17.991054325326736]}}, {"type": "Feature", "properties": {"norad_id": 36012, "name": "IRIDIUM 33 DEB", "group": "iridium-33-debris", "lat": 83.42105021212959, "lon": -19.116789964380587, "alt_km": 974.1809118676056, "timestamp": "2025-12-10T23:33:13.203624+00:00", "meta": {"OBJECT_NAME": "IRIDIUM 33 DEB", "OBJECT_ID": "1997-051UT", "EPOCH": "2025-12-09T14:59:18.724128", "MEAN_MOTION": 14.18848487, "ECCENTRICITY": 0.0212452, "INCLINATION": 86.4428, "RA_OF_ASC_NODE": 308.7902, "ARG_OF_PERICENTER": 273.2722, "MEAN_ANOMALY": 84.4182, "EPHEMERIS_TYPE": 0, "CLASSIFICATION_TYPE": "U", "NORAD_CAT_ID": 36012, "ELEMENT_SET_NO": 999, "REV_AT_EPOCH": 65440, "BSTAR": 0.0096093, "MEAN_MOTION_DOT": 0.00025103, "MEAN_MOTION_DDOT": 0}, "tle": {"line1": "1 36012U 97051UT  25343.62452227  .00025103  00000+0  96093-2 0  9990", "line2": "2 36012  86.4428 308.7902 0212452 273.2722  84.4182 14.18848487654405"}}, "geometry": {"type": "Point", "coordinates": [-19.116789964380587, 83.42105021212959]}}, {"type": "Feature", "properties": {"norad_id": 36028, "name": "IRIDIUM 33 DEB", "group": "iridium-33-debris", "lat": 44.46147050320299, "lon": -48.855822149116015, "alt_km": 563.4232419238679, "timestamp": "2025-12-10T23:33:13.203634+00:00", "meta": {"OBJECT_NAME": "IRIDIUM 33 DEB", "OBJECT_ID": "1997-051VK", "EPOCH": "2025-12-10T04:04:48.277344", "MEAN_MOTION": 14.95085193, "ECCENTRICITY": 0.00219295, "INCLINATION": 86.3223, "RA_OF_ASC_NODE": 307.9065, "ARG_OF_PERICENTER": 61.0093, "MEAN_ANOMALY": 299.3331, "EPHEMERIS_TYPE": 0, "CLASSIFICATION_TYPE": "U", "NORAD_CAT_ID": 36028, "ELEMENT_SET_NO": 999, "REV_AT_EPOCH": 87086, "BSTAR": 0.0033794203, "MEAN_MOTION_DOT": 0.00037369, "MEAN_MOTION_DDOT": 0}, "tle": {"line1": "1 36028U 97051VK  25344.17000321  .00037369  00000+0  33794-2 0  9998", "line2": "2 36028  86.3223 307.9065 0021929  61.0093 299.3331 14.95085193870861"}}, "geometry": {"type": "Point", "coordinates": [-48.855822149116015, 44.46147050320299]}}, {"type": "Feature", "properties": {"norad_id": 36080, "name": "IRIDIUM 33 DEB", "group": "iridium-33-debris", "lat": -30.57886007875067, "lon": -169.0673575008958, "alt_km": 734.4213864041676, "timestamp": "2025-12-10T23:33:13.203643+00:00", "meta": {"OBJECT_NAME": "IRIDIUM 33 DEB", "OBJECT_ID": "1997-051VM", "EPOCH": "2025-12-09T08:24:04.128192", "MEAN_MOTION": 14.46584309, "ECCENTRICITY": 0.0017863, "INCLINATION": 86.3197, "RA_OF_ASC_NODE": 9.4635, "ARG_OF_PERICENTER": 167.4902, "MEAN_ANOMALY": 192.6748, "EPHEMERIS_TYPE": 0, "CLASSIFICATION_TYPE": "U", "NORAD_CAT_ID": 36080, "ELEMENT_SET_NO": 999, "REV_AT_EPOCH": 47365, "BSTAR": 0.0010095558, "MEAN_MOTION_DOT": 3.665e-05, "MEAN_MOTION_DDOT": 0}, "tle": {"line1": "1 36080U 97051VM  25343.35004778  .00003665  00000+0  10096-2 0  9997", "line2": "2 36080  86.3197   9.4635 0017863 167.4902 192.6748 14.46584309473650"}}, "geometry": {"type": "Point", "coordinates": [-169.0673575008958, -30.57886007875067]}}, {"type": "Feature", "properties": {"norad_id": 36083, "name": "IRIDIUM 33 DEB", "group": "iridium-33-debris", "lat": -35.724737546232305, "lon": 32.2755973616886, "alt_km": 755.649799868188, "timestamp": "2025-12-10T23:33:13.203652+00:00", "meta": {"OBJECT_NAME": "IRIDIUM 33 DEB", "OBJECT_ID": "1997-051VQ", "EPOCH": "2025-12-06T21:32:26.892672", "MEAN_MOTION": 14.43175138, "ECCENTRICITY": 0.00247889, "INCLINATION": 86.3442, "RA_OF_ASC_NODE": 36.6683, "ARG_OF_PERICENTER": 243.3344, "MEAN_ANOMALY": 116.5319, "EPHEMERIS_TYPE": 0, "CLASSIFICATION_TYPE": "U", "NORAD_CAT_ID": 36083, "ELEMENT_SET_NO": 999, "REV_AT_EPOCH": 85365, "BSTAR": 0.00098432537, "MEAN_MOTION_DOT": 3.337e-05, "MEAN_MOTION_DDOT": 0}, "tle": {"line1": "1 36083U 97051VQ  25340.89753348  .00003337  00000+0  98433-3 0  9998", "line2": "2 36083  86.3442  36.6683 0024788 243.3344 116.5319 14.43175138853653"}}, "geometry": {"type": "Point", "coordinates": [32.2755973616886, -35.724737546232305]}}, {"type": "Feature", "properties": {"norad_id": 36390, "name": "IRIDIUM 33 DEB", "group": "iridium-33-debris", "lat": -49.35904424907851, "lon": -64.13523129264908, "alt_km": 673.6755192583969, "timestamp": "2025-12-10T23:33:13.203661+00:00", "meta": {"OBJECT_NAME": "IRIDIUM 33 DEB", "OBJECT_ID": "1997-051VU", "EPOCH": "2025-12-10T04:13:18.491808", "MEAN_MOTION": 14.73548967, "ECCENTRICITY": 0.00303441, "INCLINATION": 86.2912, "RA_OF_ASC_NODE": 300.5678, "ARG_OF_PERICENTER": 170.4809, "MEAN_ANOMALY": 189.6991, "EPHEMERIS_TYPE": 0, "CLASSIFICATION_TYPE": "U", "NORAD_CAT_ID": 36390, "ELEMENT_SET_NO": 999, "REV_AT_EPOCH": 66224, "BSTAR": 0.0016206136, "MEAN_MOTION_DOT": 0.00010646, "MEAN_MOTION_DDOT": 0}, "tle": {"line1": "1 36390U 97051VU  25344.17590847  .00010646  00000+0  16206-2 0  9995", "line2": "2 36390  86.2912 300.5678 0030344 170.4809 189.6991 14.73548967662240"}}, "geometry": {"type": "Point", "coordinates": [-64.13523129264908, -49.35904424907851]}}, {"type": "Feature", "properties": {"norad_id": 36483, "name": "IRIDIUM 33 DEB", "group": "iridium-33-debris", "lat": 68.59154633611901, "lon": -136.05215541098926, "alt_km": 725.4214577503599, "timestamp": "2025-12-10T23:33:13.203670+00:00", "meta": {"OBJECT_NAME": "IRIDIUM 33 DEB", "OBJECT_ID": "1997-051VZ", "EPOCH": "2025-12-10T11:24:52.773984", "MEAN_MOTION": 14.45797209, "ECCENTRICITY": 0.00110254, "INCLINATION": 86.3794, "RA_OF_ASC_NODE": 53.458, "ARG_OF_PERICENTER": 132.1914, "MEAN_ANOMALY": 228.0226, "EPHEMERIS_TYPE": 0, "CLASSIFICATION_TYPE": "U", "NORAD_CAT_ID": 36483, "ELEMENT_SET_NO": 999, "REV_AT_EPOCH": 65113, "BSTAR": 0.00078050397, "MEAN_MOTION_DOT": 2.789e-05, "MEAN_MOTION_DDOT": 0}, "tle": {"line1": "1 36483U 97051VZ  25344.47561081  .00002789  00000+0  78050-3 0  9994", "line2": "2 36483  86.3794  53.4580 0011025 132.1914 228.0226 14.45797209651134"}}, "geometry": {"type": "Point", "coordinates": [-136.05215541098926, 68.59154633611901]}}, {"type": "Feature", "properties": {"norad_id": 36490, "name": "IRIDIUM 33 DEB", "group": "iridium-33-debris", "lat": 3.647261601448835, "lon": -168.97610554789608, "alt_km": 644.1678690609015, "timestamp": "2025-12-10T23:33:13.203679+00:00", "meta": {"OBJECT_NAME": "IRIDIUM 33 DEB", "OBJECT_ID": "1997-051WG", "EPOCH": "2025-12-10T08:06:56.843424", "MEAN_MOTION": 14.76107683, "ECCENTRICITY": 0.000555, "INCLINATION": 86.3658, "RA_OF_ASC_NODE": 11.546, "ARG_OF_PERICENTER": 88.8024, "MEAN_ANOMALY": 271.3831, "EPHEMERIS_TYPE": 0, "CLASSIFICATION_TYPE": "U", "NORAD_CAT_ID": 36490, "ELEMENT_SET_NO": 999, "REV_AT_EPOCH": 86449, "BSTAR": 0.0023364, "MEAN_MOTION_DOT": 0.00016171, "MEAN_MOTION_DDOT": 0}, "tle": {"line1": "1 36490U 97051WG  25344.33815791  .00016171  00000+0  23364-2 0  9994", "line2": "2 36490  86.3658  11.5460 0005550  88.8024 271.3831 14.76107683864491"}}, "geometry": {"type": "Point", "coordinates": [-168.97610554789608, 3.647261601448835]}}, {"type": "Feature", "properties": {"norad_id": 36493, "name": "IRIDIUM 33 DEB", "group": "iridium-33-debris", "lat": 11.747878815029651, "lon": -168.29825119724265, "alt_km": 684.7570033550282, "timestamp": "2025-12-10T23:33:13.203689+00:00", "meta": {"OBJECT_NAME": "IRIDIUM 33 DEB", "OBJECT_ID": "1997-051WK", "EPOCH": "2025-12-09T18:55:29.177760", "MEAN_MOTION": 14.65174136, "ECCENTRICITY": 0.00105731, "INCLINATION": 86.3573, "RA_OF_ASC_NODE": 12.9906, "ARG_OF_PERICENTER": 14.947, "MEAN_ANOMALY": 345.2054, "EPHEMERIS_TYPE": 0, "CLASSIFICATION_TYPE": "U", "NORAD_CAT_ID": 36493, "ELEMENT_SET_NO": 999, "REV_AT_EPOCH": 74475, "BSTAR": 0.0019763587, "MEAN_MOTION_DOT": 0.00010665, "MEAN_MOTION_DDOT": 0}, "tle": {"line1": "1 36493U 97051WK  25343.78853215  .00010665  00000+0  19764-2 0  9999", "line2": "2 36493  86.3573  12.9906 0010573  14.9470 345.2054 14.65174136744755"}}, "geometry": {"type": "Point", "coordinates": [-168.29825119724265, 11.747878815029651]}}, {"type": "Feature", "properties": {"norad_id": 37548, "name": "IRIDIUM 33 DEB", "group": "iridium-33-debris", "lat": 82.02616646350236, "lon": 71.23045420022343, "alt_km": 720.7209068971661, "timestamp": "2025-12-10T23:33:13.203698+00:00", "meta": {"OBJECT_NAME": "IRIDIUM 33 DEB", "OBJECT_ID": "1997-051XH", "EPOCH": "2025-12-08T21:31:39.163584", "MEAN_MOTION": 14.51252553, "ECCENTRICITY": 0.0025132, "INCLINATION": 86.3517, "RA_OF_ASC_NODE": 45.0407, "ARG_OF_PERICENTER": 201.7474, "MEAN_ANOMALY": 158.2667, "EPHEMERIS_TYPE": 0, "CLASSIFICATION_TYPE": "U", "NORAD_CAT_ID": 37548, "ELEMENT_SET_NO": 999, "REV_AT_EPOCH": 65476, "BSTAR": 0.0012917, "MEAN_MOTION_DOT": 5.175e-05, "MEAN_MOTION_DDOT": 0}, "tle": {"line1": "1 37548U 97051XH  25342.89698106  .00005175  00000+0  12917-2 0  9991", "line2": "2 37548  86.3517  45.0407 0025132 201.7474 158.2667 14.51252553654763"}}, "geometry": {"type": "Point", "coordinates": [71.23045420022343, 82.02616646350236]}}]}